COSMOS 2361             
1 25590U 98076A   26062.70506167  .00000089  00000+0  79343-4 0  9995
2 25590  82.9313 284.2173 0032375  42.3519  23.2799 13.73226843362226
COSMOS 2378             
1 26818U 01023A   26062.70767507  .00000088  00000+0  77753-4 0  9994
2 26818  82.9261 299.7037 0032678 343.9060  76.2329 13.74150478240356
COSMOS 2389             
1 27436U 02026A   26062.53232642  .00000064  00000+0  50345-4 0  9995
2 27436  82.9466 247.1744 0046046 192.9554 221.4143 13.75163754192598
COSMOS 2398             
1 27818U 03023A   26062.48745471  .00000051  00000+0  39810-4 0  9990
2 27818  82.9482 213.1877 0030207 247.5768 173.5912 13.72394707139241
COSMOS 2407             
1 28380U 04028A   26062.73814318  .00000080  00000+0  66286-4 0  9995
2 28380  82.9639 152.9310 0039272 185.2980 293.3810 13.76324221 85377
COSMOS 2414             
1 28521U 05002A   26062.70660245  .00000117  00000+0  85334-4 0  9996
2 28521  82.9493 123.4441 0038662 270.0475  89.6258 13.87914532 69189
COSMOS 2429             
1 32052U 07038A   26062.70248192  .00000086  00000+0  72889-4 0  9990
2 32052  82.9777 283.6364 0038571 168.1313 192.0761 13.75157651927154
COSMOS 2454             
1 35635U 09039A   26062.67492481  .00000101  00000+0  68755-4 0  9996
2 35635  82.9536 107.2949 0018786 196.8973 284.3113 13.89940455842747
COSMOS 2463             
1 36519U 10017A   26062.71265473  .00000074  00000+0  64597-4 0  9999
2 36519  82.9639 327.2215 0037402  63.6072   4.4283 13.71657286793472
