[{"OBJECT_NAME":"COSMOS 2361","OBJECT_ID":"1998-076A","EPOCH":"2026-03-03T16:55:17.328288","MEAN_MOTION":13.73226843,"ECCENTRICITY":0.0032375,"INCLINATION":82.9313,"RA_OF_ASC_NODE":284.2173,"ARG_OF_PERICENTER":42.3519,"MEAN_ANOMALY":23.2799,"EPHEMERIS_TYPE":0,"CLASSIFICATION_TYPE":"U","NORAD_CAT_ID":25590,"ELEMENT_SET_NO":999,"REV_AT_EPOCH":36222,"BSTAR":7.9343e-5,"MEAN_MOTION_DOT":8.9e-7,"MEAN_MOTION_DDOT":0},{"OBJECT_NAME":"COSMOS 2378","OBJECT_ID":"2001-023A","EPOCH":"2026-03-03T16:59:03.126048","MEAN_MOTION":13.74150478,"ECCENTRICITY":0.0032678,"INCLINATION":82.9261,"RA_OF_ASC_NODE":299.7037,"ARG_OF_PERICENTER":343.906,"MEAN_ANOMALY":76.2329,"EPHEMERIS_TYPE":0,"CLASSIFICATION_TYPE":"U","NORAD_CAT_ID":26818,"ELEMENT_SET_NO":999,"REV_AT_EPOCH":24035,"BSTAR":7.7753e-5,"MEAN_MOTION_DOT":8.8e-7,"MEAN_MOTION_DDOT":0},{"OBJECT_NAME":"COSMOS 2389","OBJECT_ID":"2002-026A","EPOCH":"2026-03-03T12:46:33.002688","MEAN_MOTION":13.75163754,"ECCENTRICITY":0.0046046,"INCLINATION":82.9466,"RA_OF_ASC_NODE":247.1744,"ARG_OF_PERICENTER":192.9554,"MEAN_ANOMALY":221.4143,"EPHEMERIS_TYPE":0,"CLASSIFICATION_TYPE":"U","NORAD_CAT_ID":27436,"ELEMENT_SET_NO":999,"REV_AT_EPOCH":19259,"BSTAR":5.0345e-5,"MEAN_MOTION_DOT":6.4e-7,"MEAN_MOTION_DDOT":0},{"OBJECT_NAME":"COSMOS 2398","OBJECT_ID":"2003-023A","EPOCH":"2026-03-03T11:41:56.086944","MEAN_MOTION":13.72394707,"ECCENTRICITY":0.00302076,"INCLINATION":82.9482,"RA_OF_ASC_NODE":213.1877,"ARG_OF_PERICENTER":247.5768,"MEAN_ANOMALY":173.5912,"EPHEMERIS_TYPE":0,"CLASSIFICATION_TYPE":"U","NORAD_CAT_ID":27818,"ELEMENT_SET_NO":999,"REV_AT_EPOCH":13924,"BSTAR":3.9810231e-5,"MEAN_MOTION_DOT":5.1e-7,"MEAN_MOTION_DDOT":0},{"OBJECT_NAME":"COSMOS 2407","OBJECT_ID":"2004-028A","EPOCH":"2026-03-03T17:42:55.570752","MEAN_MOTION":13.76324221,"ECCENTRICITY":0.0039272,"INCLINATION":82.9639,"RA_OF_ASC_NODE":152.931,"ARG_OF_PERICENTER":185.298,"MEAN_ANOMALY":293.381,"EPHEMERIS_TYPE":0,"CLASSIFICATION_TYPE":"U","NORAD_CAT_ID":28380,"ELEMENT_SET_NO":999,"REV_AT_EPOCH":8537,"BSTAR":6.6286e-5,"MEAN_MOTION_DOT":8.0e-7,"MEAN_MOTION_DDOT":0},{"OBJECT_NAME":"COSMOS 2414","OBJECT_ID":"2005-002A","EPOCH":"2026-03-03T16:57:30.451680","MEAN_MOTION":13.87914532,"ECCENTRICITY":0.0038662,"INCLINATION":82.9493,"RA_OF_ASC_NODE":123.4441,"ARG_OF_PERICENTER":270.0475,"MEAN_ANOMALY":89.6258,"EPHEMERIS_TYPE":0,"CLASSIFICATION_TYPE":"U","NORAD_CAT_ID":28521,"ELEMENT_SET_NO":999,"REV_AT_EPOCH":6918,"BSTAR":8.5334e-5,"MEAN_MOTION_DOT":1.17e-6,"MEAN_MOTION_DDOT":0},{"OBJECT_NAME":"COSMOS 2429","OBJECT_ID":"2007-038A","EPOCH":"2026-03-03T16:51:34.437888","MEAN_MOTION":13.75157651,"ECCENTRICITY":0.0038571,"INCLINATION":82.9777,"RA_OF_ASC_NODE":283.6364,"ARG_OF_PERICENTER":168.1313,"MEAN_ANOMALY":192.0761,"EPHEMERIS_TYPE":0,"CLASSIFICATION_TYPE":"U","NORAD_CAT_ID":32052,"ELEMENT_SET_NO":999,"REV_AT_EPOCH":92715,"BSTAR":7.2889e-5,"MEAN_MOTION_DOT":8.6e-7,"MEAN_MOTION_DDOT":0},{"OBJECT_NAME":"COSMOS 2454","OBJECT_ID":"2009-039A","EPOCH":"2026-03-03T16:11:53.503584","MEAN_MOTION":13.89940455,"ECCENTRICITY":0.0018786,"INCLINATION":82.9536,"RA_OF_ASC_NODE":107.2949,"ARG_OF_PERICENTER":196.8973,"MEAN_ANOMALY":284.3113,"EPHEMERIS_TYPE":0,"CLASSIFICATION_TYPE":"U","NORAD_CAT_ID":35635,"ELEMENT_SET_NO":999,"REV_AT_EPOCH":84274,"BSTAR":6.8755e-5,"MEAN_MOTION_DOT":1.01e-6,"MEAN_MOTION_DDOT":0},{"OBJECT_NAME":"COSMOS 2463","OBJECT_ID":"2010-017A","EPOCH":"2026-03-03T17:06:13.368672","MEAN_MOTION":13.71657286,"ECCENTRICITY":0.0037402,"INCLINATION":82.9639,"RA_OF_ASC_NODE":327.2215,"ARG_OF_PERICENTER":63.6072,"MEAN_ANOMALY":4.4283,"EPHEMERIS_TYPE":0,"CLASSIFICATION_TYPE":"U","NORAD_CAT_ID":36519,"ELEMENT_SET_NO":999,"REV_AT_EPOCH":79347,"BSTAR":6.4597e-5,"MEAN_MOTION_DOT":7.4e-7,"MEAN_MOTION_DDOT":0}]
